C/2015 C2 (SWAN),e,94.4995,49.5378,334.1302,454.8020,0.0001016,0.99843590,0.0000,03/04.5540/2015,2000,g 14.0,4.0
# From MPC 94282
C/2015 D2 (PANSTARRS),e,31.9260,162.8150,292.4488,12.93528,0.0211856,0.56497353,17.8847,01/23.0/2016,2000,g  8.0,4.0
# From MPC 97496
C/2015 D3 (PANSTARRS),h,04/29.8841/2016,128.5144,156.9803,2.7956,1.002652,8.148927,2000,5.5,4.0
# From MPC 94672
C/2015 D4 (Borisov),e,77.2996,305.7985,314.6763,78.68214,0.0014122,0.98905556,0.0000,10/28.2511/2014,2000,g 12.0,4.0
# From MPC 96866
P/2015 D5 (Kowalski),e,20.4036,74.3549,40.2289,9.090624,0.0359595,0.49659708,23.2918,01/23.0/2016,2000,g  9.0,4.0
# From MPC 96866
P/2015 D6 (Lemmon-PANSTARRS),e,20.2116,46.2464,125.7434,7.212724,0.0508809,0.36729268,9.7833,01/23.0/2016,2000,g 10.5,4.0
# From MPC 95211
P/2015 F1 (PANSTARRS),e,2.8042,40.4259,187.1657,3.522233,0.1490998,0.27838699,46.8095,01/23.0/2016,2000,g 12.5,4.0
# From MPC 95733
C/2015 F2 (Polonia),e,28.6934,262.5438,352.0375,38.38107,0.0041450,0.96846277,1.1157,01/23.0/2016,2000,g 16.5,4.0
# From MPC 96279
C/2015 F3 (SWAN),e,73.3972,31.6381,57.5604,225.6812,0.0002907,0.99630276,0.0000,03/09.3394/2015,2000,g 14.5,4.0
# From MPC 97496
C/2015 F4 (Jacques),e,48.7050,285.9560,36.3439,115.6083,0.0007929,0.98578059,0.0000,08/10.8555/2015,2000,g 11.0,4.0
# From MPC 95212
C/2015 F5 (SWAN-Xingming),e,149.2229,287.7676,13.3970,15.56340,0.0160527,0.97779411,0.0000,03/28.1200/2015,2000,g 15.5,4.0
# From MPC 97496
C/2015 GX (PANSTARRS),e,90.2562,235.5146,108.9608,16.18382,0.0151385,0.87816375,2.2607,01/23.0/2016,2000,g 14.0,4.0
# From MPC 97496
C/2015 G2 (MASTER),h,05/23.7772/2015,147.5607,110.0586,257.4515,1.000317,0.779799,2000,11.0,4.0
# From MPC 95733
C/2015 H1 (Bressi),e,140.6553,325.8062,21.7595,32.43448,0.0053357,0.94060356,1.6028,01/23.0/2016,2000,g 13.5,4.0
# From MPC 95212
C/2015 H2 (PANSTARRS),h,09/13.2582/2016,33.7053,350.6940,287.8979,1.002536,4.967464,2000,7.5,4.0
# From MPC 95212
C/2015 J1 (PANSTARRS),h,06/29.7687/2014,94.9872,219.9938,315.4529,1.002438,6.018962,2000,8.5,4.0
# From MPC 95212
C/2015 J2 (PANSTARRS),e,17.2802,56.7527,203.6850,250.5464,0.0002485,0.98275594,0.0000,09/08.8738/2015,2000,g 10.0,4.0
# From MPC 95733
P/2015 J3 (NEOWISE),e,8.1249,111.4184,129.2962,3.350575,0.1607034,0.55412042,52.2629,01/23.0/2016,2000,g 16.5,4.0
# From MPC 97496
C/2015 K1 (MASTER),e,29.3839,5.1773,280.1863,180.2121,0.0004074,0.98581054,0.0000,10/13.5696/2014,2000,g  9.0,4.0
# From MPC 95733
C/2015 K2 (PANSTARRS),e,29.1087,223.7094,15.7792,259.1004,0.0002363,0.99438350,0.0000,06/08.8073/2015,2000,g 20.0,4.0
# From MPC 95733
C/2015 K4 (PANSTARRS),h,05/01.7670/2015,80.2548,250.7681,357.5424,1.000156,2.007731,2000,15.0,4.0
# From MPC 95213
P/2015 K5 (PANSTARRS),e,39.9875,134.2674,106.0210,6.699076,0.0568436,0.55423525,13.1031,01/23.0/2016,2000,g 13.5,4.0
# From MPC 95733
C/2015 LC2 (PANSTARRS),h,05/01.8221/2015,93.7092,223.5666,341.8480,1.001696,5.890669,2000,8.0,4.0
# From MPC 95734
C/2015 M1 (PANSTARRS),e,57.3062,100.2886,163.9820,383.2770,0.0001314,0.99454311,0.0000,05/15.6817/2015,2000,g 16.5,4.0
# From MPC 96867
P/2015 M2 (PANSTARRS),e,3.9741,86.6151,224.5951,7.202089,0.0509937,0.17897556,7.5160,01/23.0/2016,2000,g  8.5,4.0
# From MPC 95734
C/2015 M3 (PANSTARRS),e,65.9509,143.0928,123.7559,134.0257,0.0006352,0.97349444,0.0000,08/26.2053/2015,2000,g 12.0,4.0
# From MPC 96867
C/2015 O1 (PANSTARRS),h,02/18.9768/2018,127.2268,299.8509,89.5321,1.000164,3.732486,2000,6.5,4.0
# From MPC 95734
C/2015 P3 (SWAN),e,58.1822,88.1448,132.8685,230.9391,0.0002808,0.99690320,0.0000,07/27.7954/2015,2000,g 15.5,4.0
# From MPC 97496
P/2015 P4 (PANSTARRS),e,8.7137,104.7442,280.8235,6.071904,0.0658744,0.58413612,0.2607,01/23.0/2016,2000,g 14.0,4.0
# From MPC 97497
P/2015 Q1 (Scotti),e,22.6492,203.3104,198.9691,3.429193,0.1552088,0.48917424,21.0833,01/23.0/2016,2000,g 14.0,4.0
# From MPC 96867
P/2015 Q2 (Pimentel),e,146.2018,228.2476,244.4059,7.408409,0.0488784,0.75445521,6.5824,01/23.0/2016,2000,g 15.5,4.0
# From MPC 97497
P/2015 R1 (PANSTARRS),e,22.6676,48.5147,300.5260,5.896195,0.0688409,0.63276821,14.5431,01/23.0/2016,2000,g 14.0,4.0
# From MPC 95734
P/2015 R2 (PANSTARRS),e,15.4591,168.6801,149.7611,4.496204,0.1033797,0.45116288,23.5768,01/23.0/2016,2000,g 14.5,4.0
# From MPC 97497
C/2015 R3 (PANSTARRS),e,83.6045,36.4158,271.9846,3586,0.0000046,0.99863323,0.0000,02/11.8367/2014,2000,g 10.0,4.0
# From MPC 97497
C/2015 T2 (PANSTARRS),p,05/21.4377/2017,124.5222,30.8434,6.932442,51.0583,2000,8.0,4.0
# From MPC 96280
P/2015 T3 (PANSTARRS),e,13.0937,120.5019,178.6330,4.326181,0.1095335,0.50818108,359.9227,12/21.0/2014,2000,g 14.0,4.0
# From MPC 97497
C/2015 T4 (PANSTARRS),e,87.9197,251.7890,270.1332,87.38022,0.0012067,0.97371904,0.0000,06/18.9396/2016,2000,g 11.0,4.0
# From MPC 96867
C/2015 T5 (Sheppard-Tholen),e,11.0454,311.1699,62.4160,28.07090,0.0066270,0.66748549,359.9082,01/23.0/2016,2000,g  7.5,4.0
# From MPC 97497
P/2015 TO19 (Lemmon-PANSTARRS),e,6.4998,321.6473,89.2845,4.562907,0.1011211,0.35884433,355.5525,01/23.0/2016,2000,g 14.0,4.0
# From MPC 97497
C/2015 TQ209 (LINEAR),e,11.3896,224.0847,281.4931,1542,0.0000163,0.99908336,0.0000,08/27.5346/2016,2000,g 10.5,4.0
# From MPC 97497
C/2015 V1 (PANSTARRS),e,139.2305,197.1932,179.6976,7249,0.0000016,0.99941153,0.0000,12/18.3051/2017,2000,g  6.5,4.0
# From MPC 97497
C/2015 V2 (Johnson),h,06/12.6144/2017,49.8655,69.8420,164.9189,1.000954,1.637656,2000,5.0,4.0
# From MPC 97497
C/2015 V3 (PANSTARRS),e,86.2440,2.3383,0.7608,1119,0.0000263,0.99621335,0.0000,11/24.4874/2015,2000,g  9.0,4.0
# From MPC 97497
C/2015 V4 (PANSTARRS),e,60.7483,179.9302,306.6069,18.50703,0.0123794,0.70462398,357.3323,01/23.0/2016,2000,g  8.5,4.0
# From MPC 97497
C/2015 W1 (Gibbs),h,05/17.2111/2016,87.3117,114.3147,48.1144,1.000774,2.231912,2000,13.0,4.0
# From MPC 97498
P/2015 W2 (Catalina),e,11.6088,294.2557,117.5817,7.319681,0.0497698,0.63415799,5.6848,01/23.0/2016,2000,g 13.0,4.0
# From MPC 97498
P/2015 X1 (PANSTARRS),e,12.1623,161.7916,219.0240,3.628792,0.1425808,0.42031857,14.8768,01/23.0/2016,2000,g 16.0,4.0
# From MPEC 2016-B64
C/2015 XY1 (Lemmon),p,04/26.8525/2018,148.8541,195.9879,7.954861,281.5910,2000,5.5,4.0
# From MPC 97498
C/2015 X2 (Catalina),e,72.4531,101.0917,41.9992,15.81057,0.0156777,0.87952906,0.5224,01/23.0/2016,2000,g 16.0,4.0
# From MPC 97498
P/2015 X3 (PANSTARRS),e,24.3782,77.3272,306.8871,5.023275,0.0875435,0.43813154,14.7262,01/23.0/2016,2000,g 15.0,4.0
# From MPEC 2016-AC4
C/2015 X4 (Elenin),e,29.5073,262.6363,176.3364,18.13554,0.0127617,0.81280710,1.0273,01/23.0/2016,2000,g 10.0,4.0
# From MPEC 2016-B65
C/2015 X5 (PANSTARRS),p,12/31.2094/2017,124.2570,27.7352,6.802805,122.3183,2000,7.5,4.0
# From MPC 97498
P/2015 X6 (PANSTARRS),e,4.5598,107.1257,326.1934,2.728473,0.2186879,0.15667590,359.8888,03/10.0/2016,2000,g 16.0,4.0
# From MPEC 2016-AC6
C/2015 X7 (ATLAS),p,07/29.9068/2016,57.5631,348.4071,3.685003,139.9055,2000,9.0,4.0
# From MPEC 2016-AC7
C/2015 X8 (NEOWISE),e,155.2878,191.0944,20.2605,18.82548,0.0120666,0.93683874,1.1101,01/23.0/2016,2000,g 16.0,4.0
# From MPEC 2016-B19
C/2015 Y1 (LINEAR),p,05/15.4818/2016,71.3346,24.9036,2.511730,135.7555,2000,12.0,4.0
# From MPEC 2016-B20
C/2015 YG1 (NEOWISE),e,57.3428,350.5095,102.8113,17.16244,0.0138623,0.87916358,1.6082,01/23.0/2016,2000,g 13.0,4.0
# From MPEC 2016-A62
C/2016 A1 (PANSTARRS),p,11/23.0754/2017,121.1302,10.4537,5.317378,128.2487,2000,6.0,4.0
# From MPEC 2016-B21
P/2016 A2 (Christensen),e,26.9589,291.7058,140.2409,4.744354,0.0953758,0.27065260,20.9203,01/23.0/2016,2000,g 11.5,4.0
# From MPEC 2016-AC9
P/2016 A3 (PANSTARRS),e,8.5665,188.1007,334.2245,7.654550,0.0465398,0.36685753,359.9994,03/11.0/2017,2000,g 10.0,4.0
# From MPEC 2016-B09
C/2016 A5 (PANSTARRS),p,06/28.8486/2015,38.8556,319.7540,2.836940,135.6304,2000,13.5,4.0
# From MPEC 2016-B34
C/2016 A6 (PANSTARRS),p,11/06.9050/2015,121.0198,141.4491,2.417856,300.2329,2000,15.0,4.0
# From MPEC 2016-B62
P/2016 A7 (PANSTARRS),e,17.2772,218.1219,8.9130,2.453489,0.2564649,0.19089558,359.7652,04/06.0/2016,2000,g 16.0,4.0
# From MPEC 2016-B63
C/2016 B1 (NEOWISE),p,09/19.6636/2016,47.4651,338.0745,4.272297,239.4108,2000,9.5,4.0
# From AJ 98, 1083
1P/Halley,e,162.2809,58.5182,111.3882,17.85436,0.0130643,0.96783291,143.1401,01/23.0/2016,2000,g  5.5,3.2
# From NK 2573
2P/Encke,e,11.7812,334.5679,186.5500,2.215058,0.2989691,0.84835744,236.8070,01/23.0/2016,2000,g 11.5,6.0
# From MPC 92275
4P/Faye,e,9.0966,199.0796,205.0632,3.834694,0.1312527,0.57057250,79.1151,01/23.0/2016,2000,g  8.0,6.0
# From MPC 95735
6P/d'Arrest,e,19.4817,138.9323,178.1061,3.502892,0.1503363,0.61135784,49.1009,01/23.0/2016,2000,g  7.5,16.0
# From MPC 92984
7P/Pons-Winnecke,e,22.3355,93.4078,172.4991,3.418859,0.1559130,0.63763092,55.7336,01/23.0/2016,2000,g 10.0,6.0
# From MPC 75715
8P/Tuttle,e,55.0212,270.3181,207.5140,5.690345,0.0726100,0.82036856,211.5915,01/23.0/2016,2000,g  8.0,8.0
# From MPC 84319
9P/Tempel,e,10.4732,68.7616,179.1894,3.146505,0.1765881,0.50978048,325.9958,01/23.0/2016,2000,g  5.5,10.0
# From MPC 92984
10P/Tempel,e,12.0288,117.8048,195.5439,3.064293,0.1837421,0.53736921,12.8155,01/23.0/2016,2000,g  5.0,10.0
# From MPC 89730
11P/Tempel-Swift-LINEAR,e,13.5887,240.2301,164.2091,3.411392,0.1564251,0.54693679,80.3679,01/23.0/2016,2000,g 17.0,4.0
# From QJ 27, 604
12P/Pons-Brooks,e,74.3083,255.8843,199.1694,16.94848,0.0141256,0.95441982,317.4412,01/23.0/2016,2000,g  5.0,6.0
# From QJ 27, 604
13P/Olbers,e,44.6436,86.1394,64.5168,16.65912,0.0144953,0.93059611,315.3712,01/23.0/2016,2000,g  5.0,6.0
# From MPC 75715
14P/Wolf,e,27.9047,202.1226,159.0886,4.255652,0.1122677,0.35554140,283.7308,01/23.0/2016,2000,g  5.5,12.0
# From MPC 91617
15P/Finlay,e,6.8021,13.7303,347.6926,3.492794,0.1509887,0.72006800,59.1787,01/23.0/2016,2000,g 12.0,4.0
# From MPC 92276
16P/Brooks,e,4.2841,159.2761,219.9254,3.366914,0.1595350,0.56523018,94.5179,01/23.0/2016,2000,g  7.5,10.0
# From MPC 83523
17P/Holmes,e,19.0879,326.7691,24.6652,3.623194,0.1429113,0.43120190,95.2523,01/23.0/2016,2000,g 10.0,6.0
